CCSDS_OMM_VERS = 2.0
CREATION_DATE  = 
ORIGINATOR     = 

OBJECT_NAME    = ELECTRON KICK STAGE R/B
OBJECT_ID      = 2026-019C
CENTER_NAME    = EARTH
REF_FRAME      = TEME
TIME_SYSTEM    = UTC
MEAN_ELEMENT_THEORY = SGP/SGP4

EPOCH          = 2026-02-16T07:00:51.672672
MEAN_MOTION    = 15.65076443
ECCENTRICITY   = .01725521
INCLINATION    = 97.4042
RA_OF_ASC_NODE = 172.9727
ARG_OF_PERICENTER = 200.1406
MEAN_ANOMALY   = 159.2991

EPHEMERIS_TYPE = 0
CLASSIFICATION_TYPE = U
NORAD_CAT_ID   = 67616
ELEMENT_SET_NO = 999
REV_AT_EPOCH   = 268
BSTAR          = .20194414E-2
MEAN_MOTION_DOT = .447357E-2
MEAN_MOTION_DDOT = .59619845E-4

CCSDS_OMM_VERS = 2.0
CREATION_DATE  = 
ORIGINATOR     = 

OBJECT_NAME    = STARLINK-36548
OBJECT_ID      = 2026-020A
CENTER_NAME    = EARTH
REF_FRAME      = TEME
TIME_SYSTEM    = UTC
MEAN_ELEMENT_THEORY = SGP/SGP4

EPOCH          = 2026-02-16T01:49:22.060992
MEAN_MOTION    = 15.76379875
ECCENTRICITY   = .00024016
INCLINATION    = 42.9972
RA_OF_ASC_NODE = 273.6429
ARG_OF_PERICENTER = 240.5571
MEAN_ANOMALY   = 119.5059

EPHEMERIS_TYPE = 0
CLASSIFICATION_TYPE = U
NORAD_CAT_ID   = 67617
ELEMENT_SET_NO = 999
REV_AT_EPOCH   = 267
BSTAR          = .11070457E-2
MEAN_MOTION_DOT = .183866E-2
MEAN_MOTION_DDOT = 0

CCSDS_OMM_VERS = 2.0
CREATION_DATE  = 
ORIGINATOR     = 

OBJECT_NAME    = STARLINK-36601
OBJECT_ID      = 2026-020B
CENTER_NAME    = EARTH
REF_FRAME      = TEME
TIME_SYSTEM    = UTC
MEAN_ELEMENT_THEORY = SGP/SGP4

EPOCH          = 2026-02-15T22:15:17.411040
MEAN_MOTION    = 15.82148263
ECCENTRICITY   = .0002092
INCLINATION    = 42.9974
RA_OF_ASC_NODE = 274.2357
ARG_OF_PERICENTER = 295.7741
MEAN_ANOMALY   = 64.2915

EPHEMERIS_TYPE = 0
CLASSIFICATION_TYPE = U
NORAD_CAT_ID   = 67618
ELEMENT_SET_NO = 999
REV_AT_EPOCH   = 265
BSTAR          = .18737E-2
MEAN_MOTION_DOT = .41614E-2
MEAN_MOTION_DDOT = 0

CCSDS_OMM_VERS = 2.0
CREATION_DATE  = 
ORIGINATOR     = 

OBJECT_NAME    = STARLINK-36119
OBJECT_ID      = 2026-020C
CENTER_NAME    = EARTH
REF_FRAME      = TEME
TIME_SYSTEM    = UTC
MEAN_ELEMENT_THEORY = SGP/SGP4

EPOCH          = 2026-02-16T01:46:12.327456
MEAN_MOTION    = 15.76446835
ECCENTRICITY   = .00020317
INCLINATION    = 42.9970
RA_OF_ASC_NODE = 273.6253
ARG_OF_PERICENTER = 280.1412
MEAN_ANOMALY   = 79.9228

EPHEMERIS_TYPE = 0
CLASSIFICATION_TYPE = U
NORAD_CAT_ID   = 67619
ELEMENT_SET_NO = 999
REV_AT_EPOCH   = 267
BSTAR          = .1845308E-2
MEAN_MOTION_DOT = .312459E-2
MEAN_MOTION_DDOT = 0

CCSDS_OMM_VERS = 2.0
CREATION_DATE  = 
ORIGINATOR     = 

OBJECT_NAME    = STARLINK-36607
OBJECT_ID      = 2026-020D
CENTER_NAME    = EARTH
REF_FRAME      = TEME
TIME_SYSTEM    = UTC
MEAN_ELEMENT_THEORY = SGP/SGP4

EPOCH          = 2026-02-15T22:12:43.636320
MEAN_MOTION    = 15.82161743
ECCENTRICITY   = .0001434
INCLINATION    = 42.9974
RA_OF_ASC_NODE = 274.2198
ARG_OF_PERICENTER = 271.7843
MEAN_ANOMALY   = 88.2864

EPHEMERIS_TYPE = 0
CLASSIFICATION_TYPE = U
NORAD_CAT_ID   = 67620
ELEMENT_SET_NO = 999
REV_AT_EPOCH   = 265
BSTAR          = .17153E-2
MEAN_MOTION_DOT = .379514E-2
MEAN_MOTION_DDOT = 0

CCSDS_OMM_VERS = 2.0
CREATION_DATE  = 
ORIGINATOR     = 

OBJECT_NAME    = STARLINK-36615
OBJECT_ID      = 2026-020E
CENTER_NAME    = EARTH
REF_FRAME      = TEME
TIME_SYSTEM    = UTC
MEAN_ELEMENT_THEORY = SGP/SGP4

EPOCH          = 2026-02-15T16:10:00.919200
MEAN_MOTION    = 15.82164708
ECCENTRICITY   = .00015545
INCLINATION    = 42.9960
RA_OF_ASC_NODE = 275.7726
ARG_OF_PERICENTER = 246.0666
MEAN_ANOMALY   = 114.0043

EPHEMERIS_TYPE = 0
CLASSIFICATION_TYPE = U
NORAD_CAT_ID   = 67621
ELEMENT_SET_NO = 999
REV_AT_EPOCH   = 261
BSTAR          = .20572186E-2
MEAN_MOTION_DOT = .45964E-2
MEAN_MOTION_DDOT = 0

CCSDS_OMM_VERS = 2.0
CREATION_DATE  = 
ORIGINATOR     = 

OBJECT_NAME    = STARLINK-36614
OBJECT_ID      = 2026-020F
CENTER_NAME    = EARTH
REF_FRAME      = TEME
TIME_SYSTEM    = UTC
MEAN_ELEMENT_THEORY = SGP/SGP4

EPOCH          = 2026-02-16T01:39:54.409536
MEAN_MOTION    = 15.76375262
ECCENTRICITY   = .00022777
INCLINATION    = 42.9973
RA_OF_ASC_NODE = 273.5901
ARG_OF_PERICENTER = 256.2368
MEAN_ANOMALY   = 103.8248

EPHEMERIS_TYPE = 0
CLASSIFICATION_TYPE = U
NORAD_CAT_ID   = 67622
ELEMENT_SET_NO = 999
REV_AT_EPOCH   = 267
BSTAR          = .9778241E-3
MEAN_MOTION_DOT = .161889E-2
MEAN_MOTION_DDOT = 0

CCSDS_OMM_VERS = 2.0
CREATION_DATE  = 
ORIGINATOR     = 

OBJECT_NAME    = STARLINK-36600
OBJECT_ID      = 2026-020G
CENTER_NAME    = EARTH
REF_FRAME      = TEME
TIME_SYSTEM    = UTC
MEAN_ELEMENT_THEORY = SGP/SGP4

EPOCH          = 2026-02-16T01:43:03.648864
MEAN_MOTION    = 15.76373887
ECCENTRICITY   = .00020079
INCLINATION    = 42.9967
RA_OF_ASC_NODE = 273.6076
ARG_OF_PERICENTER = 269.5871
MEAN_ANOMALY   = 90.4768

EPHEMERIS_TYPE = 0
CLASSIFICATION_TYPE = U
NORAD_CAT_ID   = 67623
ELEMENT_SET_NO = 999
REV_AT_EPOCH   = 267
BSTAR          = .10869185E-2
MEAN_MOTION_DOT = .180387E-2
MEAN_MOTION_DDOT = 0

CCSDS_OMM_VERS = 2.0
CREATION_DATE  = 
ORIGINATOR     = 

OBJECT_NAME    = STARLINK-36439
OBJECT_ID      = 2026-020H
CENTER_NAME    = EARTH
REF_FRAME      = TEME
TIME_SYSTEM    = UTC
MEAN_ELEMENT_THEORY = SGP/SGP4

EPOCH          = 2026-02-16T06:00:02.000160
MEAN_MOTION    = 15.76375750
ECCENTRICITY   = .00020334
INCLINATION    = 42.9980
RA_OF_ASC_NODE = 272.3681
ARG_OF_PERICENTER = 303.0444
MEAN_ANOMALY   = 53.1090

EPHEMERIS_TYPE = 0
CLASSIFICATION_TYPE = U
NORAD_CAT_ID   = 67624
ELEMENT_SET_NO = 999
REV_AT_EPOCH   = 394
BSTAR          = .18822692E-3
MEAN_MOTION_DOT = .30286E-3
MEAN_MOTION_DDOT = 0

CCSDS_OMM_VERS = 2.0
CREATION_DATE  = 
ORIGINATOR     = 

OBJECT_NAME    = STARLINK-36438
OBJECT_ID      = 2026-020J
CENTER_NAME    = EARTH
REF_FRAME      = TEME
TIME_SYSTEM    = UTC
MEAN_ELEMENT_THEORY = SGP/SGP4

EPOCH          = 2026-02-16T01:36:45.170208
MEAN_MOTION    = 15.76410062
ECCENTRICITY   = .00021562
INCLINATION    = 42.9970
RA_OF_ASC_NODE = 273.5721
ARG_OF_PERICENTER = 279.7103
MEAN_ANOMALY   = 80.3523

EPHEMERIS_TYPE = 0
CLASSIFICATION_TYPE = U
NORAD_CAT_ID   = 67625
ELEMENT_SET_NO = 999
REV_AT_EPOCH   = 267
BSTAR          = .14945334E-2
MEAN_MOTION_DOT = .250707E-2
MEAN_MOTION_DDOT = 0

CCSDS_OMM_VERS = 2.0
CREATION_DATE  = 
ORIGINATOR     = 

OBJECT_NAME    = STARLINK-36436
OBJECT_ID      = 2026-020K
CENTER_NAME    = EARTH
REF_FRAME      = TEME
TIME_SYSTEM    = UTC
MEAN_ELEMENT_THEORY = SGP/SGP4

EPOCH          = 2026-02-15T16:03:23.462784
MEAN_MOTION    = 15.82167759
ECCENTRICITY   = .0001381
INCLINATION    = 42.9959
RA_OF_ASC_NODE = 275.7357
ARG_OF_PERICENTER = 272.6811
MEAN_ANOMALY   = 87.3903

EPHEMERIS_TYPE = 0
CLASSIFICATION_TYPE = U
NORAD_CAT_ID   = 67626
ELEMENT_SET_NO = 999
REV_AT_EPOCH   = 261
BSTAR          = .17068E-2
MEAN_MOTION_DOT = .377667E-2
MEAN_MOTION_DDOT = 0

CCSDS_OMM_VERS = 2.0
CREATION_DATE  = 
ORIGINATOR     = 

OBJECT_NAME    = STARLINK-36502
OBJECT_ID      = 2026-020L
CENTER_NAME    = EARTH
REF_FRAME      = TEME
TIME_SYSTEM    = UTC
MEAN_ELEMENT_THEORY = SGP/SGP4

EPOCH          = 2026-02-15T16:04:26.649696
MEAN_MOTION    = 15.82161003
ECCENTRICITY   = .00018792
INCLINATION    = 42.9958
RA_OF_ASC_NODE = 275.7424
ARG_OF_PERICENTER = 227.8567
MEAN_ANOMALY   = 132.2145

EPHEMERIS_TYPE = 0
CLASSIFICATION_TYPE = U
NORAD_CAT_ID   = 67627
ELEMENT_SET_NO = 999
REV_AT_EPOCH   = 261
BSTAR          = .16676782E-2
MEAN_MOTION_DOT = .368474E-2
MEAN_MOTION_DDOT = 0

