ELECTRON KICK STAGE R/B 
1 67616U 26019C   26047.29226473  .00447357  59620-4  20194-2 0  9992
2 67616  97.4042 172.9727 0172552 200.1406 159.2991 15.65076443  2687
STARLINK-36548          
1 67617U 26020A   26047.07594978  .00183866  00000+0  11070-2 0  9997
2 67617  42.9972 273.6429 0002401 240.5571 119.5059 15.76379875  2679
STARLINK-36601          
1 67618U 26020B   26046.92728485  .00416140  00000+0  18737-2 0  9994
2 67618  42.9974 274.2357 0002092 295.7741  64.2915 15.82148263  2653
STARLINK-36119          
1 67619U 26020C   26047.07375379  .00312459  00000+0  18453-2 0  9995
2 67619  42.9970 273.6253 0002031 280.1412  79.9228 15.76446835  2675
STARLINK-36607          
1 67620U 26020D   26046.92550505  .00379514  00000+0  17153-2 0  9997
2 67620  42.9974 274.2198 0001434 271.7843  88.2864 15.82161743  2652
STARLINK-36615          
1 67621U 26020E   26046.67362175  .00459640  00000+0  20572-2 0  9992
2 67621  42.9960 275.7726 0001554 246.0666 114.0043 15.82164708  2619
STARLINK-36614          
1 67622U 26020F   26047.06937974  .00161889  00000+0  97782-3 0  9995
2 67622  42.9973 273.5901 0002277 256.2368 103.8248 15.76375262  2671
STARLINK-36600          
1 67623U 26020G   26047.07157001  .00180387  00000+0  10869-2 0  9996
2 67623  42.9967 273.6076 0002007 269.5871  90.4768 15.76373887  2675
STARLINK-36439          
1 67624U 26020H   26047.25002315  .00030286  00000+0  18823-3 0  9995
2 67624  42.9980 272.3681 0002033 303.0444  53.1090 15.76375750  3944
STARLINK-36438          
1 67625U 26020J   26047.06718947  .00250707  00000+0  14945-2 0  9992
2 67625  42.9970 273.5721 0002156 279.7103  80.3523 15.76410062  2677
STARLINK-36436          
1 67626U 26020K   26046.66902156  .00377667  00000+0  17068-2 0  9999
2 67626  42.9959 275.7357 0001381 272.6811  87.3903 15.82167759  2613
STARLINK-36502          
1 67627U 26020L   26046.66975289  .00368474  00000+0  16677-2 0  9998
2 67627  42.9958 275.7424 0001879 227.8567 132.2145 15.82161003  2614
